HXMT (HUIYAN)
1 42758U 26103.26366898  3.02800-5 1.56682-4 0 0                     
2 42758  43.0134 184.3879 0030316  93.4177 267.0139 15.17918681      
SAOCOM 1A
1 43641U 26103.25836806  2.71000-6 2.75088-5 0 0                     
2 43641  97.8909 290.9432 0001398  89.6799 270.4574 14.82143454      
SAOCOM 1B
1 46265U 26103.28964120  5.75000-6 7.88158-5 0 0                     
2 46265  97.8897 290.0691 0001495  83.5592 276.5791 14.82159840      
CSS (TIANHE)
1 48274U 26103.18799769  1.77740-4 1.98492-4 0 0                     
2 48274  41.4686 357.9812 0005208 197.9259 162.1398 15.62338137      
XRISM
1 57800U 26103.17334491  3.08200-5 1.70057-4 0 0                     
2 57800  31.0024  60.5486 0007567  25.4885 334.6126 15.11902420      
ACS3
1 59588U 26103.25484954  3.28600-5 2.57230-3 0 0                     
2 59588  97.1897  36.6004 0072146   2.7203 357.4340 13.91314033      
HTV-X1
1 66174U 26103.14656250  4.06600-5 1.38634-4 0 0                     
2 66174  51.6352 266.9240 0007469 306.9182  53.1115 15.32631727      
H-2A R/B
1 43682U 26103.05811343  1.21630-4 2.77328-4 0 0                     
2 43682  98.8684 327.8253 0023063 263.1721  96.6898 15.42846424      
CZ-2C R/B
1 52794U 26103.26482639  2.30150-4 3.07852-4 0 0                     
2 52794  50.1868 140.0769 0040475 348.9641  11.0439 15.56907685      
CZ-2C R/B
1 54039U 26102.99659722  3.47010-4 3.49295-4 0 0                     
2 54039  97.2950 107.4416 0013976 329.7939  30.2514 15.65230165      
GSLV R/B
1 54149U 26102.88142361  1.95700-5 1.66870-4 0 0                     
2 54149  87.3838 154.9107 0022686  33.7731 326.4941 14.96984519      
SZ-21 MODULE
1 66515U 26102.91548611  2.77460-4 2.13450-4 0 0                     
2 66515  41.4755 352.2369 0004376 263.5627  96.4718 15.71361533      
