[{"OBJECT_NAME":"HXMT (HUIYAN)","OBJECT_ID":"2017-034A","EPOCH":"2026-04-13T06:19:41.818944","MEAN_MOTION":15.17918681,"ECCENTRICITY":0.0030316,"INCLINATION":43.0134,"RA_OF_ASC_NODE":184.3879,"ARG_OF_PERICENTER":93.4177,"MEAN_ANOMALY":267.0139,"EPHEMERIS_TYPE":0,"CLASSIFICATION_TYPE":"U","NORAD_CAT_ID":42758,"ELEMENT_SET_NO":999,"REV_AT_EPOCH":48779,"BSTAR":0.00015668187,"MEAN_MOTION_DOT":3.028e-5,"MEAN_MOTION_DDOT":0},{"OBJECT_NAME":"SAOCOM 1A","OBJECT_ID":"2018-076A","EPOCH":"2026-04-13T06:12:03.238848","MEAN_MOTION":14.82143454,"ECCENTRICITY":0.00013983,"INCLINATION":97.8909,"RA_OF_ASC_NODE":290.9432,"ARG_OF_PERICENTER":89.6799,"MEAN_ANOMALY":270.4574,"EPHEMERIS_TYPE":0,"CLASSIFICATION_TYPE":"U","NORAD_CAT_ID":43641,"ELEMENT_SET_NO":999,"REV_AT_EPOCH":40648,"BSTAR":-2.7508771e-5,"MEAN_MOTION_DOT":-2.71e-6,"MEAN_MOTION_DDOT":0},{"OBJECT_NAME":"H-2A R/B","OBJECT_ID":"2018-084L","EPOCH":"2026-04-13T01:23:41.437536","MEAN_MOTION":15.42846424,"ECCENTRICITY":0.00230638,"INCLINATION":98.8684,"RA_OF_ASC_NODE":327.8253,"ARG_OF_PERICENTER":263.1721,"MEAN_ANOMALY":96.6898,"EPHEMERIS_TYPE":0,"CLASSIFICATION_TYPE":"U","NORAD_CAT_ID":43682,"ELEMENT_SET_NO":999,"REV_AT_EPOCH":41107,"BSTAR":0.0002773279,"MEAN_MOTION_DOT":0.00012163,"MEAN_MOTION_DDOT":0},{"OBJECT_NAME":"SAOCOM 1B","OBJECT_ID":"2020-059A","EPOCH":"2026-04-13T06:57:05.219136","MEAN_MOTION":14.8215984,"ECCENTRICITY":0.00014958,"INCLINATION":97.8897,"RA_OF_ASC_NODE":290.0691,"ARG_OF_PERICENTER":83.5592,"MEAN_ANOMALY":276.5791,"EPHEMERIS_TYPE":0,"CLASSIFICATION_TYPE":"U","NORAD_CAT_ID":46265,"ELEMENT_SET_NO":999,"REV_AT_EPOCH":30387,"BSTAR":7.8815839e-5,"MEAN_MOTION_DOT":5.75e-6,"MEAN_MOTION_DDOT":0},{"OBJECT_NAME":"CSS (TIANHE)","OBJECT_ID":"2021-035A","EPOCH":"2026-04-13T04:30:43.361568","MEAN_MOTION":15.62338137,"ECCENTRICITY":0.00052082,"INCLINATION":41.4686,"RA_OF_ASC_NODE":357.9812,"ARG_OF_PERICENTER":197.9259,"MEAN_ANOMALY":162.1398,"EPHEMERIS_TYPE":0,"CLASSIFICATION_TYPE":"U","NORAD_CAT_ID":48274,"ELEMENT_SET_NO":999,"REV_AT_EPOCH":28300,"BSTAR":0.00019849246,"MEAN_MOTION_DOT":0.00017774,"MEAN_MOTION_DDOT":0},{"OBJECT_NAME":"CZ-2C R/B","OBJECT_ID":"2022-058K","EPOCH":"2026-04-13T06:21:21.211776","MEAN_MOTION":15.56907685,"ECCENTRICITY":0.00404755,"INCLINATION":50.1868,"RA_OF_ASC_NODE":140.0769,"ARG_OF_PERICENTER":348.9641,"MEAN_ANOMALY":11.0439,"EPHEMERIS_TYPE":0,"CLASSIFICATION_TYPE":"U","NORAD_CAT_ID":52794,"ELEMENT_SET_NO":999,"REV_AT_EPOCH":21551,"BSTAR":0.00030785218,"MEAN_MOTION_DOT":0.00023015,"MEAN_MOTION_DDOT":0},{"OBJECT_NAME":"CZ-2C R/B","OBJECT_ID":"2022-132E","EPOCH":"2026-04-12T23:55:06.193344","MEAN_MOTION":15.65230165,"ECCENTRICITY":0.0013976,"INCLINATION":97.295,"RA_OF_ASC_NODE":107.4416,"ARG_OF_PERICENTER":329.7939,"MEAN_ANOMALY":30.2514,"EPHEMERIS_TYPE":0,"CLASSIFICATION_TYPE":"U","NORAD_CAT_ID":54039,"ELEMENT_SET_NO":999,"REV_AT_EPOCH":19573,"BSTAR":0.00034929475,"MEAN_MOTION_DOT":0.00034701,"MEAN_MOTION_DDOT":0},{"OBJECT_NAME":"GSLV R/B","OBJECT_ID":"2022-138AN","EPOCH":"2026-04-12T21:09:15.838848","MEAN_MOTION":14.96984519,"ECCENTRICITY":0.0022687,"INCLINATION":87.3838,"RA_OF_ASC_NODE":154.9107,"ARG_OF_PERICENTER":33.7731,"MEAN_ANOMALY":326.4941,"EPHEMERIS_TYPE":0,"CLASSIFICATION_TYPE":"U","NORAD_CAT_ID":54149,"ELEMENT_SET_NO":999,"REV_AT_EPOCH":18904,"BSTAR":0.00016687,"MEAN_MOTION_DOT":1.957e-5,"MEAN_MOTION_DDOT":0},{"OBJECT_NAME":"XRISM","OBJECT_ID":"2023-137A","EPOCH":"2026-04-13T04:09:37.084032","MEAN_MOTION":15.1190242,"ECCENTRICITY":0.00075672,"INCLINATION":31.0024,"RA_OF_ASC_NODE":60.5486,"ARG_OF_PERICENTER":25.4885,"MEAN_ANOMALY":334.6126,"EPHEMERIS_TYPE":0,"CLASSIFICATION_TYPE":"U","NORAD_CAT_ID":57800,"ELEMENT_SET_NO":999,"REV_AT_EPOCH":14301,"BSTAR":0.00017005698,"MEAN_MOTION_DOT":3.082e-5,"MEAN_MOTION_DDOT":0},{"OBJECT_NAME":"ACS3","OBJECT_ID":"2024-077B","EPOCH":"2026-04-13T06:06:59.627520","MEAN_MOTION":13.91314033,"ECCENTRICITY":0.00721461,"INCLINATION":97.1897,"RA_OF_ASC_NODE":36.6004,"ARG_OF_PERICENTER":2.7203,"MEAN_ANOMALY":357.434,"EPHEMERIS_TYPE":0,"CLASSIFICATION_TYPE":"U","NORAD_CAT_ID":59588,"ELEMENT_SET_NO":999,"REV_AT_EPOCH":9900,"BSTAR":0.0025722995,"MEAN_MOTION_DOT":3.286e-5,"MEAN_MOTION_DDOT":0},{"OBJECT_NAME":"HTV-X1","OBJECT_ID":"2025-241A","EPOCH":"2026-04-13T03:31:03.915840","MEAN_MOTION":15.32631727,"ECCENTRICITY":0.00074691,"INCLINATION":51.6352,"RA_OF_ASC_NODE":266.924,"ARG_OF_PERICENTER":306.9182,"MEAN_ANOMALY":53.1115,"EPHEMERIS_TYPE":0,"CLASSIFICATION_TYPE":"U","NORAD_CAT_ID":66174,"ELEMENT_SET_NO":999,"REV_AT_EPOCH":2622,"BSTAR":0.00013863446,"MEAN_MOTION_DOT":4.066e-5,"MEAN_MOTION_DDOT":0},{"OBJECT_NAME":"SZ-21 MODULE","OBJECT_ID":"2025-246C","EPOCH":"2026-04-12T21:58:18.272928","MEAN_MOTION":15.71361533,"ECCENTRICITY":0.0004376,"INCLINATION":41.4755,"RA_OF_ASC_NODE":352.2369,"ARG_OF_PERICENTER":263.5627,"MEAN_ANOMALY":96.4718,"EPHEMERIS_TYPE":0,"CLASSIFICATION_TYPE":"U","NORAD_CAT_ID":66515,"ELEMENT_SET_NO":999,"REV_AT_EPOCH":2345,"BSTAR":0.00021345,"MEAN_MOTION_DOT":0.00027746,"MEAN_MOTION_DDOT":0}]
